AKEBONO (EXOS-D)        
1 19822U 89016A   20226.09614141  .00020868  72873-6  36529-3 0  9999
2 19822  75.0099 358.4807 1721496 211.5065 137.0712 12.10449976 46452
HST                     
1 20580U 90037B   20226.28115193  .00000369  00000-0  11425-4 0  9991
2 20580  28.4700 303.7973 0002684 348.8285  53.9591 15.09416841464564
POLAR                   
1 23802U 96013A   20225.14622748  .00000280  00000-0  00000-0 0  9999
2 23802  78.7066 249.1233 6271701 281.4465  18.4973  1.29846551117135
SWAS                    
1 25560U 98071A   20226.23612415  .00000032  00000-0  11631-4 0  9990
2 25560  69.8970 240.7785 0011059 259.8194 100.1715 14.93895185177504
ORSTED                  
1 25635U 99008B   20226.08679091  .00000061  00000-0  21932-4 0  9997
2 25635  96.4450 237.0347 0139002 169.1443 191.2810 14.48216986132816
CXO                     
1 25867U 99040B   20227.34462808  .00000534  00000-0  00000-0 0  9990
2 25867  61.4925 265.5232 7830662 227.4669   0.4058  0.37803659  9287
XMM-NEWTON              
1 25989U 99066A   20227.38830097  .00000192  00000-0  00000+0 0  9995
2 25989  71.1033 319.5272 7042122  92.7475   0.4020  0.50130538 26673
TERRA                   
1 25994U 99068A   20226.37215673 -.00000136  00000-0 -20160-4 0  9992
2 25994  98.2096 299.8586 0001191 100.9377 259.1938 14.57112752 98606
CLUSTER II-FM7 (SAMBA)  
1 26410U 00041A   20225.89308633 -.00000025  00000-0  00000-0 0  9997
2 26410 132.0129 342.0727 4459443 184.7116 359.4884  0.44221491 10839
CLUSTER II-FM6 (SALSA)  
1 26411U 00041B   20223.72976033 -.00000047  00000-0  00000+0 0  9996
2 26411 132.0619 343.3938 5776125 190.4324 359.2889  0.44214292 21899
CLUSTER II-FM5 (RUMBA)  
1 26463U 00045A   20228.21183004 -.00000096  00000-0  00000+0 0  9998
2 26463 135.7240 343.1031 5382170 190.2934 359.4183  0.44221673 23180
CLUSTER II-FM8 (TANGO)  
1 26464U 00045B   20225.88213290 -.00000025  00000-0  00000-0 0  9993
2 26464 132.0143 342.0629 4459674 184.7102 359.4753  0.44220137 10848
ODIN                    
1 26702U 01007A   20226.05170179  .00000493  00000-0  35936-4 0  9993
2 26702  97.5534 242.0717 0012645  76.5313 283.7323 15.08136268 64747
TIMED                   
1 26998U 01055B   20226.33601281  .00000067  00000-0  11362-4 0  9991
2 26998  74.0723 179.9585 0002526 257.2909 102.7990 14.88206412 13000
RHESSI                  
1 27370U 02004A   20226.27683536  .00001690  00000-0  56230-4 0  9993
2 27370  38.0319 193.8027 0010495  79.9148 280.2807 15.32976963 23050
INTEGRAL                
1 27540U 02048A   20225.34235609  .00000798  00000-0  00000+0 0  9998
2 27540  55.8956 109.4648 8977224 293.0959   2.0885  0.37575793 18600
CORIOLIS                
1 27640U 03001A   20226.30644619 -.00000010  00000-0  16385-4 0  9997
2 27640  98.7263 234.8782 0013227 230.6954 139.8415 14.19044021911484
SORCE                   
1 27651U 03004A   20226.11101253  .00000007  00000-0  14918-4 0  9998
2 27651  39.9967  14.0637 0021662  54.7568 305.5245 14.89135165952642
MOST                    
1 27843U 03031D   20226.03961353 -.00000014  00000-0  13916-4 0  9993
2 27843  98.7098 232.5167 0008984 293.3669  66.6563 14.20615323887631
SCISAT 1                
1 27858U 03036A   20226.28249343  .00000024  00000-0  83788-5 0  9994
2 27858  73.9322  72.8107 0009127 267.2472  92.7658 14.77296808916041
SWIFT                   
1 28485U 04047A   20225.66995928  .00000754  00000-0  20908-4 0  9996
2 28485  20.5577 351.3284 0011266  48.3217 311.8180 15.04652254861957
FORMOSAT-3 FM6          
1 29047U 06011A   20226.04870436  .00000072  00000-0  44598-4 0  9997
2 29047  71.9803 354.4764 0051506 322.9152  36.8429 14.28747253749405
FORMOSAT-3 FM1          
1 29048U 06011B   20226.20880942  .00000067  00000-0  42717-4 0  9994
2 29048  71.9650 264.9947 0045767 281.7604  77.8400 14.28710961751919
FORMOSAT-3 FM5          
1 29049U 06011C   20225.99661536  .00000016  00000-0  22510-4 0  9999
2 29049  72.0200  77.3974 0036339 307.3121  52.4705 14.28792390747674
FORMOSAT-3 FM3          
1 29050U 06011D   20226.25815429  .00000109  00000-0  33284-4 0  9996
2 29050  72.0141 217.1508 0051252 223.4182 136.2929 14.58937080764615
FORMOSAT-3 FM4          
1 29051U 06011E   20226.06548416  .00000033  00000-0  28584-4 0  9998
2 29051  72.0072 339.2014 0068375 188.4176 171.5821 14.28823435750279
FORMOSAT-3 FM2          
1 29052U 06011F   20225.99094907  .00000026  00000-0  26329-4 0  9998
2 29052  72.0340  53.7280 0041668 268.1698  91.4667 14.28929377748594
CLOUDSAT                
1 29107U 06016A   20226.15857727  .00000073  00000-0  23896-4 0  9998
2 29107  98.2343 173.2394 0001387 151.3615 208.7663 14.62432823760617
CALIPSO                 
1 29108U 06016B   20226.15801279  .00000077  00000-0  24710-4 0  9990
2 29108  98.2327 173.0109 0001459  75.5292 284.6071 14.62430452760623
HINODE (SOLAR-B)        
1 29479U 06041A   20226.17796836  .00000041  00000-0  16718-4 0  9993
2 29479  98.1592 237.5176 0016895 185.5637 174.5381 14.65078757742194
SJ-6C                   
1 29505U 06046A   20226.35396844  .00000295  00000-0  32380-4 0  9997
2 29505  97.8159 239.8793 0004075 184.9649 175.1523 14.94899367752110
SJ-6D                   
1 29506U 06046B   20226.35222496 -.00000172  00000-0 -10953-4 0  9997
2 29506  97.8364 240.0118 0001084 341.8691  18.2481 14.93526655751667
AGILE                   
1 31135U 07013A   20226.06221499  .00002114  00000-0  29857-4 0  9992
2 31135   2.4676 111.1674 0011978 340.3506  19.6087 15.32440572740744
AIM                     
1 31304U 07015A   20226.15847256  .00000543  00000-0  34136-4 0  9997
2 31304  97.8994 111.0421 0005642 149.3078 210.8483 15.13670167729267
FGRST (GLAST)           
1 33053U 08029A   20225.95962073  .00000435  00000-0  80578-5 0  9990
2 33053  25.5832  75.5647 0012068 302.3157  57.6210 15.11358099671875
WISE                    
1 36119U 09071A   20226.16923067  .00000587  00000-0  22622-4 0  9991
2 36119  97.3244 261.6671 0003036 147.9228 212.2198 15.30185606592472
SDO                     
1 36395U 10005A   20225.25320132 -.00000082  00000-0  00000+0 0  9991
2 36395  30.4130 120.3739 0001526  18.2414 171.4401  1.00269256 38626
CRYOSAT 2               
1 36508U 10013A   20226.18280595  .00000087  00000-0  20831-4 0  9990
2 36508  92.0306 121.4997 0007249  37.2791 322.8918 14.51902719548502
X-SAT                   
1 37389U 11015C   20226.27605744 -.00000016  00000-0  10857-4 0  9998
2 37389  98.4300 279.3353 0015137 121.4748 238.7917 14.24380201484370
GCOM-W1 (SHIZUKU)       
1 38337U 12025A   20225.91698822  .00000013  00000-0  12955-4 0  9990
2 38337  98.2109 165.1126 0002043 113.4967 288.5889 14.57113698438229
NUSTAR                  
1 38358U 12031A   20226.01208743  .00000902  00000-0  20413-4 0  9996
2 38358   6.0255 218.1892 0011854 343.6768  16.2979 14.88325634444453
NEOSSAT                 
1 39089U 13009D   20226.18992363  .00000006  00000-0  17534-4 0  9995
2 39089  98.4645  66.8983 0012389 116.1678 244.0783 14.34517393390684
IRIS                    
1 39197U 13033A   20226.10960030  .00000065  00000-0  16042-4 0  9998
2 39197  97.9605  47.5822 0028764  48.7418 311.6264 14.78744191384457
HISAKI (SPRINT-A)       
1 39253U 13049A   20226.23087534  .00000050  00000-0 -17487-4 0  9990
2 39253  29.7191 265.7501 0137330   1.9466 358.1621 13.55225363341719
CASSIOPE                
1 39265U 13055A   20226.15107214  .00002499  00000-0  68711-4 0  9993
2 39265  80.9651 255.1314 0660673 137.0718 228.4036 14.29639413355901
STSAT-3                 
1 39422U 13066G   20226.19571896  .00000007  00000-0  62323-5 0  9992
2 39422  97.5084 256.0826 0023180   8.8825 351.2799 14.89848604365584
SWARM B                 
1 39451U 13067A   20226.21432777  .00000254  00000-0  96137-5 0  9996
2 39451  87.7486 262.8165 0003083  65.5392 294.6175 15.21767032358596
SWARM A                 
1 39452U 13067B   20226.40227118  .00000878  00000-0  17845-4 0  9999
2 39452  87.3604 110.0063 0003120 101.2901 258.8707 15.44649867378014
SWARM C                 
1 39453U 13067C   20226.40221123  .00000876  00000-0  17806-4 0  9995
2 39453  87.3458 110.8481 0003118 101.3633 258.7975 15.44650620377973
BRITE-CA1 (TORONTO)     
1 40020U 14033L   20226.24263514  .00000024  00000-0  12657-4 0  9997
2 40020  97.7316  51.2018 0085956 251.1915 107.9952 14.66654820329082
OCO 2                   
1 40059U 14035A   20226.38670490 -.00000001  00000-0  99372-5 0  9997
2 40059  98.2111 166.3119 0001536  84.3240 275.8134 14.57109993325328
BRITE-PL2 (HEWELIUSZ)   
1 40119U 14049B   20226.20814542  .00000049  00000-0  12255-4 0  9993
2 40119  97.8954 317.8712 0015977 284.7919  75.1525 14.84523177324115
RESURS P2               
1 40360U 14087A   20226.27582745  .00000514  00000-0  18137-4 0  9999
2 40360  97.2445 313.9730 0008938 352.5188  82.8168 15.33611869315029
MMS 1                   
1 40482U 15011A   20222.27033612 -.00001871  00000-0  00000+0 0  9995
2 40482  29.5649 120.0035 8573977  22.7741 129.1430  0.28670658 11368
MMS 2                   
1 40483U 15011B   20222.27019404 -.00001870  00000-0  00000+0 0  9998
2 40483  29.5636 120.0038 8571478  22.7768 129.1231  0.28670640 11349
MMS 3                   
1 40484U 15011C   20223.30217509 -.00001901  00000-0  00000-0 0  9996
2 40484  29.5938 119.9809 8572500  22.8017 235.5828  0.28663422 11347
MMS 4                   
1 40485U 15011D   20223.30217509 -.00001900  00000-0  00000+0 0  9995
2 40485  29.5877 120.0054 8572170  22.7872 235.5390  0.28670533 11352
ASTROSAT                
1 40930U 15052A   20226.24950617  .00000707  00000-0  10167-4 0  9998
2 40930   5.9965 297.4962 0008668 348.7558  11.2376 14.76324492263620
DAMPE                   
1 41173U 15078A   20226.30581345  .00000078  00000-0  61213-5 0  9991
2 41173  97.3270 219.0022 0015261  55.2469  68.8287 15.23889742259057
PISAT                   
1 41784U 16059B   20226.17633584  .00000015  00000-0  11978-4 0  9990
2 41784  98.0142 281.1172 0033017 133.1742 227.2228 14.63530597207206
HXMT (HUIYAN)           
1 42758U 17034A   20226.34095912  .00000197  00000-0  26004-4 0  9999
2 42758  43.0193  83.9076 0010758  18.6238 150.1244 15.08866315174462
FLYING LAPTOP           
1 42831U 17042G   20226.16637019  .00000089  00000-0  14278-4 0  9990
2 42831  97.5136 105.4071 0015669  95.3269 264.9738 14.91145648167747
PICSAT                  
1 43132U 18004X   20226.15735325  .00001053  00000-0  45683-4 0  9998
2 43132  97.4441 297.1457 0008747 204.9232 155.1584 15.24534919143692
ZHANGZHENG-1 (CSES)     
1 43194U 18015C   20226.35757368  .00000674  00000-0  33494-4 0  9996
2 43194  97.4431 350.7023 0013748 272.7706 162.9105 15.21016982140313
ICON                    
1 44628U 19068A   20225.82314020  .00000408  00000-0  19749-4 0  9995
2 44628  26.9912  25.7425 0018852 222.1679 137.7428 14.91716984 45857
